{
    "links": {
        "self": "http://www.neowsapp.com/rest/v1/neo/3655970?api_key=iIulBulltgU6a56xZRHN4H3l9WmuAYTsLGpBGhQ2"
    },
    "id": "3655970",
    "neo_reference_id": "3655970",
    "name": "(2014 AE51)",
    "designation": "2014 AE51",
    "nasa_jpl_url": "http://ssd.jpl.nasa.gov/sbdb.cgi?sstr=3655970",
    "absolute_magnitude_h": 25.5,
    "estimated_diameter": {
        "kilometers": {
            "estimated_diameter_min": 0.0211132445,
            "estimated_diameter_max": 0.0472106499
        },
        "meters": {
            "estimated_diameter_min": 21.113244479,
            "estimated_diameter_max": 47.2106498806
        },
        "miles": {
            "estimated_diameter_min": 0.0131191578,
            "estimated_diameter_max": 0.0293353287
        },
        "feet": {
            "estimated_diameter_min": 69.2691770164,
            "estimated_diameter_max": 154.8905885541
        }
    },
    "is_potentially_hazardous_asteroid": false,
    "close_approach_data": [
        {
            "close_approach_date": "2010-04-25",
            "close_approach_date_full": "2010-Apr-25 20:40",
            "epoch_date_close_approach": 1272228000000,
            "relative_velocity": {
                "kilometers_per_second": "21.1559314212",
                "kilometers_per_hour": "76161.3531163067",
                "miles_per_hour": "47323.702996074"
            },
            "miss_distance": {
                "astronomical": "0.3802847554",
                "lunar": "147.9307698506",
                "kilometers": "56889789.401310998",
                "miles": "35349675.9477198524"
            },
            "orbiting_body": "Earth"
        },
        {
            "close_approach_date": "2014-01-14",
            "close_approach_date_full": "2014-Jan-14 18:19",
            "epoch_date_close_approach": 1389723540000,
            "relative_velocity": {
                "kilometers_per_second": "12.6873827715",
                "kilometers_per_hour": "45674.5779774119",
                "miles_per_hour": "28380.4065215757"
            },
            "miss_distance": {
                "astronomical": "0.0156299149",
                "lunar": "6.0800368961",
                "kilometers": "2338201.977321263",
                "miles": "1452891.3372409094"
            },
            "orbiting_body": "Earth"
        }
    ],
    "orbital_data": {
        "orbit_id": "6",
        "orbit_determination_date": "2017-04-06 08:42:54",
        "first_observation_date": "2014-01-10",
        "last_observation_date": "2014-01-14",
        "data_arc_in_days": 4,
        "observations_used": 81,
        "orbit_uncertainty": "7",
        "minimum_orbit_intersection": ".0036204",
        "jupiter_tisserand_invariant": "3.170",
        "epoch_osculation": "2459000.5",
        "eccentricity": ".6259377010261975",
        "semi_major_axis": "2.463578531468147",
        "inclination": "9.852459282082146",
        "ascending_node_longitude": "295.2296627858336",
        "orbital_period": "1412.368565602957",
        "perihelion_distance": ".9215318491834792",
        "perihelion_argument": "214.835877373964",
        "aphelion_distance": "4.005625213752815",
        "perihelion_time": "2459524.786177141287",
        "mean_anomaly": "226.3641854063166",
        "mean_motion": ".2548909744718876",
        "equinox": "J2000",
        "orbit_class": {
            "orbit_class_type": "APO",
            "orbit_class_description": "Near-Earth asteroid orbits which cross the Earth’s orbit similar to that of 1862 Apollo",
            "orbit_class_range": "a (semi-major axis) > 1.0 AU; q (perihelion) < 1.017 AU"
        }
    },
    "is_sentry_object": false
}